QIANFAN-73              
1 63159U 25046A   26013.30486283  .00000171  00000+0  24572-3 0  9998
2 63159  88.9790 316.7595 0016568  37.3623 322.8677 13.50988048 51673
QIANFAN-74              
1 63160U 25046B   26013.21425150  .00000165  00000+0  23744-3 0  9999
2 63160  88.9790 316.6577 0001925  69.3780 290.7578 13.50985155 51729
QIANFAN-75              
1 63161U 25046C   26013.27550242  .00000190  00000+0  27466-3 0  9990
2 63161  88.9791 316.8854 0017828  39.7263 320.5190 13.50988158 51602
QIANFAN-76              
1 63162U 25046D   26013.27214528  .00000183  00000+0  26403-3 0  9997
2 63162  88.9790 316.8662 0015393  40.8670 319.3633 13.50990464 51611
QIANFAN-77              
1 63163U 25046E   26013.22157007  .00000388  00000+0  27264-3 0  9994
2 63163  88.9790 314.6204 0014936 351.2926   8.7990 13.96120242 52845
QIANFAN-78              
1 63164U 25046F   26013.23899151  .00000193  00000+0  28056-3 0  9993
2 63164  88.9789 316.7334 0016805  42.6186 317.6266 13.50989314 51689
QIANFAN-79              
1 63165U 25046G   26013.26763726  .00000190  00000+0  27597-3 0  9991
2 63165  88.9793 316.8391 0016489  41.1169 319.1222 13.50986357 51630
QIANFAN-80              
1 63166U 25046H   26013.28417888  .00000178  00000+0  25716-3 0  9996
2 63166  88.9791 316.5435 0015509  45.0538 315.1869 13.50989191 51799
